CCSDS_OMM_VERS = 2.0
CREATION_DATE  = 
ORIGINATOR     = 

OBJECT_NAME    = STARLINK-36572
OBJECT_ID      = 2026-014E
CENTER_NAME    = EARTH
REF_FRAME      = TEME
TIME_SYSTEM    = UTC
MEAN_ELEMENT_THEORY = SGP/SGP4

EPOCH          = 2026-02-06T06:00:02.000160
MEAN_MOTION    = 15.80765309
ECCENTRICITY   = .00013979
INCLINATION    = 97.2841
RA_OF_ASC_NODE = 280.5641
ARG_OF_PERICENTER = 110.1074
MEAN_ANOMALY   = 110.0307

EPHEMERIS_TYPE = 0
CLASSIFICATION_TYPE = U
NORAD_CAT_ID   = 67536
ELEMENT_SET_NO = 999
REV_AT_EPOCH   = 363
BSTAR          = .54998406E-3
MEAN_MOTION_DOT = .106252E-2
MEAN_MOTION_DDOT = 0

CCSDS_OMM_VERS = 2.0
CREATION_DATE  = 
ORIGINATOR     = 

OBJECT_NAME    = STARLINK-36561
OBJECT_ID      = 2026-014F
CENTER_NAME    = EARTH
REF_FRAME      = TEME
TIME_SYSTEM    = UTC
MEAN_ELEMENT_THEORY = SGP/SGP4

EPOCH          = 2026-02-06T06:00:02.000160
MEAN_MOTION    = 15.79401434
ECCENTRICITY   = .00019273
INCLINATION    = 97.2788
RA_OF_ASC_NODE = 280.5642
ARG_OF_PERICENTER = 79.0420
MEAN_ANOMALY   = 145.6083

EPHEMERIS_TYPE = 0
CLASSIFICATION_TYPE = U
NORAD_CAT_ID   = 67537
ELEMENT_SET_NO = 999
REV_AT_EPOCH   = 363
BSTAR          = -.12943129E-1
MEAN_MOTION_DOT = -.2013048E-1
MEAN_MOTION_DDOT = 0

CCSDS_OMM_VERS = 2.0
CREATION_DATE  = 
ORIGINATOR     = 

OBJECT_NAME    = STARLINK-36397
OBJECT_ID      = 2026-014G
CENTER_NAME    = EARTH
REF_FRAME      = TEME
TIME_SYSTEM    = UTC
MEAN_ELEMENT_THEORY = SGP/SGP4

EPOCH          = 2026-02-06T06:00:02.000160
MEAN_MOTION    = 15.75216543
ECCENTRICITY   = .00016845
INCLINATION    = 97.2810
RA_OF_ASC_NODE = 280.5579
ARG_OF_PERICENTER = 92.9160
MEAN_ANOMALY   = 117.0308

EPHEMERIS_TYPE = 0
CLASSIFICATION_TYPE = U
NORAD_CAT_ID   = 67538
ELEMENT_SET_NO = 999
REV_AT_EPOCH   = 363
BSTAR          = -.37228458E-3
MEAN_MOTION_DOT = -.55365E-3
MEAN_MOTION_DDOT = 0

CCSDS_OMM_VERS = 2.0
CREATION_DATE  = 
ORIGINATOR     = 

OBJECT_NAME    = STARLINK-36573
OBJECT_ID      = 2026-014H
CENTER_NAME    = EARTH
REF_FRAME      = TEME
TIME_SYSTEM    = UTC
MEAN_ELEMENT_THEORY = SGP/SGP4

EPOCH          = 2026-02-06T06:00:02.000160
MEAN_MOTION    = 15.80804817
ECCENTRICITY   = .00016997
INCLINATION    = 97.2804
RA_OF_ASC_NODE = 280.5695
ARG_OF_PERICENTER = 114.7655
MEAN_ANOMALY   = 121.9069

EPHEMERIS_TYPE = 0
CLASSIFICATION_TYPE = U
NORAD_CAT_ID   = 67539
ELEMENT_SET_NO = 999
REV_AT_EPOCH   = 363
BSTAR          = .26206727E-3
MEAN_MOTION_DOT = .50322E-3
MEAN_MOTION_DDOT = 0

CCSDS_OMM_VERS = 2.0
CREATION_DATE  = 
ORIGINATOR     = 

OBJECT_NAME    = STARLINK-36585
OBJECT_ID      = 2026-014J
CENTER_NAME    = EARTH
REF_FRAME      = TEME
TIME_SYSTEM    = UTC
MEAN_ELEMENT_THEORY = SGP/SGP4

EPOCH          = 2026-02-06T06:00:02.000160
MEAN_MOTION    = 15.80944399
ECCENTRICITY   = .00019327
INCLINATION    = 97.2778
RA_OF_ASC_NODE = 280.5706
ARG_OF_PERICENTER = 112.6017
MEAN_ANOMALY   = 129.3664

EPHEMERIS_TYPE = 0
CLASSIFICATION_TYPE = U
NORAD_CAT_ID   = 67540
ELEMENT_SET_NO = 999
REV_AT_EPOCH   = 363
BSTAR          = -.11399234E-1
MEAN_MOTION_DOT = -.1917824E-1
MEAN_MOTION_DDOT = 0

CCSDS_OMM_VERS = 2.0
CREATION_DATE  = 
ORIGINATOR     = 

OBJECT_NAME    = STARLINK-36579
OBJECT_ID      = 2026-014K
CENTER_NAME    = EARTH
REF_FRAME      = TEME
TIME_SYSTEM    = UTC
MEAN_ELEMENT_THEORY = SGP/SGP4

EPOCH          = 2026-02-06T06:00:02.000160
MEAN_MOTION    = 15.80801831
ECCENTRICITY   = .00013914
INCLINATION    = 97.2837
RA_OF_ASC_NODE = 280.5752
ARG_OF_PERICENTER = 85.5828
MEAN_ANOMALY   = 163.6334

EPHEMERIS_TYPE = 0
CLASSIFICATION_TYPE = U
NORAD_CAT_ID   = 67541
ELEMENT_SET_NO = 999
REV_AT_EPOCH   = 363
BSTAR          = .4190194E-3
MEAN_MOTION_DOT = .80815E-3
MEAN_MOTION_DDOT = 0

CCSDS_OMM_VERS = 2.0
CREATION_DATE  = 
ORIGINATOR     = 

OBJECT_NAME    = STARLINK-35934
OBJECT_ID      = 2026-014L
CENTER_NAME    = EARTH
REF_FRAME      = TEME
TIME_SYSTEM    = UTC
MEAN_ELEMENT_THEORY = SGP/SGP4

EPOCH          = 2026-02-06T06:00:02.000160
MEAN_MOTION    = 15.80756926
ECCENTRICITY   = .00017884
INCLINATION    = 97.2815
RA_OF_ASC_NODE = 280.5782
ARG_OF_PERICENTER = 92.2584
MEAN_ANOMALY   = 165.0639

EPHEMERIS_TYPE = 0
CLASSIFICATION_TYPE = U
NORAD_CAT_ID   = 67542
ELEMENT_SET_NO = 999
REV_AT_EPOCH   = 362
BSTAR          = .6865101E-3
MEAN_MOTION_DOT = .133025E-2
MEAN_MOTION_DDOT = 0

CCSDS_OMM_VERS = 2.0
CREATION_DATE  = 
ORIGINATOR     = 

OBJECT_NAME    = STARLINK-36581
OBJECT_ID      = 2026-014M
CENTER_NAME    = EARTH
REF_FRAME      = TEME
TIME_SYSTEM    = UTC
MEAN_ELEMENT_THEORY = SGP/SGP4

EPOCH          = 2026-02-06T06:00:02.000160
MEAN_MOTION    = 15.80710166
ECCENTRICITY   = .00013208
INCLINATION    = 97.2778
RA_OF_ASC_NODE = 280.5824
ARG_OF_PERICENTER = 70.1759
MEAN_ANOMALY   = 193.9458

EPHEMERIS_TYPE = 0
CLASSIFICATION_TYPE = U
NORAD_CAT_ID   = 67543
ELEMENT_SET_NO = 999
REV_AT_EPOCH   = 363
BSTAR          = .13826674E-2
MEAN_MOTION_DOT = .271811E-2
MEAN_MOTION_DDOT = 0

CCSDS_OMM_VERS = 2.0
CREATION_DATE  = 
ORIGINATOR     = 

OBJECT_NAME    = STARLINK-36565
OBJECT_ID      = 2026-014N
CENTER_NAME    = EARTH
REF_FRAME      = TEME
TIME_SYSTEM    = UTC
MEAN_ELEMENT_THEORY = SGP/SGP4

EPOCH          = 2026-02-06T06:00:02.000160
MEAN_MOTION    = 15.80766660
ECCENTRICITY   = .00014491
INCLINATION    = 97.2836
RA_OF_ASC_NODE = 280.5843
ARG_OF_PERICENTER = 89.9250
MEAN_ANOMALY   = 180.2210

EPHEMERIS_TYPE = 0
CLASSIFICATION_TYPE = U
NORAD_CAT_ID   = 67544
ELEMENT_SET_NO = 999
REV_AT_EPOCH   = 363
BSTAR          = .88537434E-3
MEAN_MOTION_DOT = .172455E-2
MEAN_MOTION_DDOT = 0

CCSDS_OMM_VERS = 2.0
CREATION_DATE  = 
ORIGINATOR     = 

OBJECT_NAME    = STARLINK-36583
OBJECT_ID      = 2026-014P
CENTER_NAME    = EARTH
REF_FRAME      = TEME
TIME_SYSTEM    = UTC
MEAN_ELEMENT_THEORY = SGP/SGP4

EPOCH          = 2026-02-06T06:00:02.000160
MEAN_MOTION    = 15.78405772
ECCENTRICITY   = .00018705
INCLINATION    = 97.2831
RA_OF_ASC_NODE = 280.5841
ARG_OF_PERICENTER = 92.6493
MEAN_ANOMALY   = 180.9987

EPHEMERIS_TYPE = 0
CLASSIFICATION_TYPE = U
NORAD_CAT_ID   = 67545
ELEMENT_SET_NO = 999
REV_AT_EPOCH   = 363
BSTAR          = -.1322177E-1
MEAN_MOTION_DOT = -.1971818E-1
MEAN_MOTION_DDOT = 0

CCSDS_OMM_VERS = 2.0
CREATION_DATE  = 
ORIGINATOR     = 

OBJECT_NAME    = STARLINK-36580
OBJECT_ID      = 2026-014Q
CENTER_NAME    = EARTH
REF_FRAME      = TEME
TIME_SYSTEM    = UTC
MEAN_ELEMENT_THEORY = SGP/SGP4

EPOCH          = 2026-02-06T06:00:02.000160
MEAN_MOTION    = 15.80816469
ECCENTRICITY   = .00012126
INCLINATION    = 97.2761
RA_OF_ASC_NODE = 280.5874
ARG_OF_PERICENTER = 98.4879
MEAN_ANOMALY   = 185.4758

EPHEMERIS_TYPE = 0
CLASSIFICATION_TYPE = U
NORAD_CAT_ID   = 67546
ELEMENT_SET_NO = 999
REV_AT_EPOCH   = 363
BSTAR          = .25987596E-3
MEAN_MOTION_DOT = .49923E-3
MEAN_MOTION_DDOT = 0

CCSDS_OMM_VERS = 2.0
CREATION_DATE  = 
ORIGINATOR     = 

OBJECT_NAME    = STARLINK-36584
OBJECT_ID      = 2026-014R
CENTER_NAME    = EARTH
REF_FRAME      = TEME
TIME_SYSTEM    = UTC
MEAN_ELEMENT_THEORY = SGP/SGP4

EPOCH          = 2026-02-06T06:00:02.000160
MEAN_MOTION    = 15.80786955
ECCENTRICITY   = .00017181
INCLINATION    = 97.2761
RA_OF_ASC_NODE = 280.5889
ARG_OF_PERICENTER = 90.8636
MEAN_ANOMALY   = 198.5972

EPHEMERIS_TYPE = 0
CLASSIFICATION_TYPE = U
NORAD_CAT_ID   = 67547
ELEMENT_SET_NO = 999
REV_AT_EPOCH   = 363
BSTAR          = .52458164E-3
MEAN_MOTION_DOT = .101383E-2
MEAN_MOTION_DDOT = 0

