STARLINK-36572          
1 67536U 26014E   26037.25002315  .00106252  00000+0  54998-3 0  9999
2 67536  97.2841 280.5641 0001397 110.1074 110.0307 15.80765309  3638
STARLINK-36561          
1 67537U 26014F   26037.25002315 -.02013048  00000+0 -12943-1 0  9996
2 67537  97.2788 280.5642 0001927  79.0420 145.6083 15.79401434  3636
STARLINK-36397          
1 67538U 26014G   26037.25002315 -.00055365  00000+0 -37228-3 0  9998
2 67538  97.2810 280.5579 0001684  92.9160 117.0308 15.75216543  3631
STARLINK-36573          
1 67539U 26014H   26037.25002315  .00050322  00000+0  26207-3 0  9990
2 67539  97.2804 280.5695 0001699 114.7655 121.9069 15.80804817  3633
STARLINK-36585          
1 67540U 26014J   26037.25002315 -.01917824  00000+0 -11399-1 0  9998
2 67540  97.2778 280.5706 0001932 112.6017 129.3664 15.80944399  3630
STARLINK-36579          
1 67541U 26014K   26037.25002315  .00080815  00000+0  41902-3 0  9992
2 67541  97.2837 280.5752 0001391  85.5828 163.6334 15.80801831  3633
STARLINK-35934          
1 67542U 26014L   26037.25002315  .00133025  00000+0  68651-3 0  9995
2 67542  97.2815 280.5782 0001788  92.2584 165.0639 15.80756926  3624
STARLINK-36581          
1 67543U 26014M   26037.25002315  .00271811  00000+0  13827-2 0  9996
2 67543  97.2778 280.5824 0001320  70.1759 193.9458 15.80710166  3637
STARLINK-36565          
1 67544U 26014N   26037.25002315  .00172455  00000+0  88537-3 0  9992
2 67544  97.2836 280.5843 0001449  89.9250 180.2210 15.80766660  3635
STARLINK-36583          
1 67545U 26014P   26037.25002315 -.01971818  00000+0 -13222-1 0  9993
2 67545  97.2831 280.5841 0001870  92.6493 180.9987 15.78405772  3636
STARLINK-36580          
1 67546U 26014Q   26037.25002315  .00049923  00000+0  25988-3 0  9998
2 67546  97.2761 280.5874 0001212  98.4879 185.4758 15.80816469  3635
STARLINK-36584          
1 67547U 26014R   26037.25002315  .00101383  00000+0  52458-3 0  9990
2 67547  97.2761 280.5889 0001718  90.8636 198.5972 15.80786955  3639
